SHIJIAN-6 02B (SJ-6 02B)
1 29506U 06046B   26095.29565341  .00003380  00000+0  26817-3 0  9995
2 29506  97.7101 124.8264 0012152 316.6682  43.3585 15.01140916 59807
FGRST (GLAST)           
1 33053U 08029A   26095.01417099  .00005092  00000+0  19317-3 0  9995
2 33053  25.5841 352.4013 0008124 180.2323 179.8212 15.23548312984660
SDO                     
1 36395U 10005A   26093.00669913 -.00000054  00000+0  00000+0 0  9994
2 36395  34.4952  87.4755 0000578  22.7728 341.7255  1.00274249 59313
CRYOSAT 2               
1 36508U 10013A   26095.23297432  .00000353  00000+0  86890-4 0  9996
2 36508  92.0255 259.6082 0002455  96.8353 263.3134 14.51898771847494
X-SAT                   
1 37389U 11015C   26095.21129179  .00000548  00000+0  25046-3 0  9998
2 37389  98.3465  75.7337 0013524 192.6315 167.4528 14.25185108777280
GCOM-W1 (SHIZUKU)       
1 38337U 12025A   26095.26252702  .00000901  00000+0  20985-3 0  9998
2 38337  98.2090  36.9313 0001111  75.5215  87.0943 14.57139402738418
NUSTAR                  
1 38358U 12031A   26095.33335648  .00014372  00000+0  84876-3 0  9993
2 38358   6.0255 220.3380 0007033 104.8268 356.4167 15.08101640  1309
NEOSSAT                 
1 39089U 13009D   26095.10776692  .00000235  00000+0  95848-4 0  9999
2 39089  98.4161 276.8818 0012173 103.3183 256.9362 14.35800079686250
BRITE-AUSTRIA           
1 39091U 13009F   26095.21230094  .00000315  00000+0  12161-3 0  9990
2 39091  98.3976 276.4587 0011393  97.6670 262.5811 14.36512301686570
IRIS                    
1 39197U 13033A   26095.16330248  .00002137  00000+0  25131-3 0  9995
2 39197  97.9379 294.6539 0024100 194.8199 165.2312 14.85732250689539
HISAKI (SPRINT-A)       
1 39253U 13049A   26095.06914409  .00000166  00000+0  13645-3 0  9998
2 39253  29.7188 231.7453 0136416 144.0747 216.9084 13.55534829621499
CASSIOPE                
1 39265U 13055A   26095.21812335  .00034455 -30972-6  40812-3 0  9993
2 39265  80.9163 155.0020 0306721 307.4206  49.9463 15.20788980656569
STSAT-3                 
1 39422U 13066G   26095.25679854  .00008284  00000+0  63017-3 0  9995
2 39422  97.6169  66.3856 0008823 279.3874  80.6353 15.02343009673250
SWARM B                 
1 39451U 13067A   26095.19309672  .00005454  00000+0  19783-3 0  9996
2 39451  87.7501   4.4662 0002872  77.6128 282.5443 15.28121515672097
SWARM A                 
1 39452U 13067B   26095.20905325  .00014660  00000+0  26611-3 0  9993
2 39452  87.3288  83.3209 0003534  95.7384 264.4279 15.49439235694948
SWARM C                 
1 39453U 13067C   26095.20898341  .00014709  00000+0  26701-3 0  9997
2 39453  87.3289  81.9020 0003535  96.0155 264.1508 15.49436830694902
BRITE-CA1 (TORONTO)     
1 40020U 14033L   26095.13074568  .00002072  00000+0  31802-3 0  9990
2 40020  97.9618 225.4599 0079568 150.0256 210.5542 14.72554677631465
