[{"OBJECT_NAME":"SHIJIAN-6 02B (SJ-6 02B)","OBJECT_ID":"2006-046B","EPOCH":"2026-04-05T07:05:44.454624","MEAN_MOTION":15.01140916,"ECCENTRICITY":0.0012152,"INCLINATION":97.7101,"RA_OF_ASC_NODE":124.8264,"ARG_OF_PERICENTER":316.6682,"MEAN_ANOMALY":43.3585,"EPHEMERIS_TYPE":0,"CLASSIFICATION_TYPE":"U","NORAD_CAT_ID":29506,"ELEMENT_SET_NO":999,"REV_AT_EPOCH":5980,"BSTAR":0.00026816905,"MEAN_MOTION_DOT":3.38e-5,"MEAN_MOTION_DDOT":0},{"OBJECT_NAME":"FGRST (GLAST)","OBJECT_ID":"2008-029A","EPOCH":"2026-04-05T00:20:24.373536","MEAN_MOTION":15.23548312,"ECCENTRICITY":0.00081245,"INCLINATION":25.5841,"RA_OF_ASC_NODE":352.4013,"ARG_OF_PERICENTER":180.2323,"MEAN_ANOMALY":179.8212,"EPHEMERIS_TYPE":0,"CLASSIFICATION_TYPE":"U","NORAD_CAT_ID":33053,"ELEMENT_SET_NO":999,"REV_AT_EPOCH":98466,"BSTAR":0.00019317037,"MEAN_MOTION_DOT":5.092e-5,"MEAN_MOTION_DDOT":0},{"OBJECT_NAME":"SDO","OBJECT_ID":"2010-005A","EPOCH":"2026-04-03T00:09:38.804832","MEAN_MOTION":1.00274249,"ECCENTRICITY":5.789e-5,"INCLINATION":34.4952,"RA_OF_ASC_NODE":87.4755,"ARG_OF_PERICENTER":22.7728,"MEAN_ANOMALY":341.7255,"EPHEMERIS_TYPE":0,"CLASSIFICATION_TYPE":"U","NORAD_CAT_ID":36395,"ELEMENT_SET_NO":999,"REV_AT_EPOCH":5931,"BSTAR":0,"MEAN_MOTION_DOT":-5.4e-7,"MEAN_MOTION_DDOT":0},{"OBJECT_NAME":"CRYOSAT 2","OBJECT_ID":"2010-013A","EPOCH":"2026-04-05T05:35:28.981248","MEAN_MOTION":14.51898771,"ECCENTRICITY":0.00024559,"INCLINATION":92.0255,"RA_OF_ASC_NODE":259.6082,"ARG_OF_PERICENTER":96.8353,"MEAN_ANOMALY":263.3134,"EPHEMERIS_TYPE":0,"CLASSIFICATION_TYPE":"U","NORAD_CAT_ID":36508,"ELEMENT_SET_NO":999,"REV_AT_EPOCH":84749,"BSTAR":8.6890292e-5,"MEAN_MOTION_DOT":3.53e-6,"MEAN_MOTION_DDOT":0},{"OBJECT_NAME":"X-SAT","OBJECT_ID":"2011-015C","EPOCH":"2026-04-05T05:04:15.610656","MEAN_MOTION":14.25185108,"ECCENTRICITY":0.00135242,"INCLINATION":98.3465,"RA_OF_ASC_NODE":75.7337,"ARG_OF_PERICENTER":192.6315,"MEAN_ANOMALY":167.4528,"EPHEMERIS_TYPE":0,"CLASSIFICATION_TYPE":"U","NORAD_CAT_ID":37389,"ELEMENT_SET_NO":999,"REV_AT_EPOCH":77728,"BSTAR":0.00025046367,"MEAN_MOTION_DOT":5.48e-6,"MEAN_MOTION_DDOT":0},{"OBJECT_NAME":"GCOM-W1 (SHIZUKU)","OBJECT_ID":"2012-025A","EPOCH":"2026-04-05T06:18:02.334528","MEAN_MOTION":14.57139402,"ECCENTRICITY":0.00011116,"INCLINATION":98.209,"RA_OF_ASC_NODE":36.9313,"ARG_OF_PERICENTER":75.5215,"MEAN_ANOMALY":87.0943,"EPHEMERIS_TYPE":0,"CLASSIFICATION_TYPE":"U","NORAD_CAT_ID":38337,"ELEMENT_SET_NO":999,"REV_AT_EPOCH":73841,"BSTAR":0.00020984589,"MEAN_MOTION_DOT":9.01e-6,"MEAN_MOTION_DDOT":0},{"OBJECT_NAME":"NUSTAR","OBJECT_ID":"2012-031A","EPOCH":"2026-04-05T08:00:01.999872","MEAN_MOTION":15.0810164,"ECCENTRICITY":0.00070333,"INCLINATION":6.0255,"RA_OF_ASC_NODE":220.338,"ARG_OF_PERICENTER":104.8268,"MEAN_ANOMALY":356.4167,"EPHEMERIS_TYPE":0,"CLASSIFICATION_TYPE":"U","NORAD_CAT_ID":38358,"ELEMENT_SET_NO":999,"REV_AT_EPOCH":130,"BSTAR":0.00084875574,"MEAN_MOTION_DOT":0.00014372,"MEAN_MOTION_DDOT":0},{"OBJECT_NAME":"NEOSSAT","OBJECT_ID":"2013-009D","EPOCH":"2026-04-05T02:35:11.061888","MEAN_MOTION":14.35800079,"ECCENTRICITY":0.00121731,"INCLINATION":98.4161,"RA_OF_ASC_NODE":276.8818,"ARG_OF_PERICENTER":103.3183,"MEAN_ANOMALY":256.9362,"EPHEMERIS_TYPE":0,"CLASSIFICATION_TYPE":"U","NORAD_CAT_ID":39089,"ELEMENT_SET_NO":999,"REV_AT_EPOCH":68625,"BSTAR":9.5847867e-5,"MEAN_MOTION_DOT":2.35e-6,"MEAN_MOTION_DDOT":0},{"OBJECT_NAME":"BRITE-AUSTRIA","OBJECT_ID":"2013-009F","EPOCH":"2026-04-05T05:05:42.801216","MEAN_MOTION":14.36512301,"ECCENTRICITY":0.00113938,"INCLINATION":98.3976,"RA_OF_ASC_NODE":276.4587,"ARG_OF_PERICENTER":97.667,"MEAN_ANOMALY":262.5811,"EPHEMERIS_TYPE":0,"CLASSIFICATION_TYPE":"U","NORAD_CAT_ID":39091,"ELEMENT_SET_NO":999,"REV_AT_EPOCH":68657,"BSTAR":0.0001216073,"MEAN_MOTION_DOT":3.15e-6,"MEAN_MOTION_DDOT":0},{"OBJECT_NAME":"IRIS","OBJECT_ID":"2013-033A","EPOCH":"2026-04-05T03:55:09.334272","MEAN_MOTION":14.8573225,"ECCENTRICITY":0.00241008,"INCLINATION":97.9379,"RA_OF_ASC_NODE":294.6539,"ARG_OF_PERICENTER":194.8199,"MEAN_ANOMALY":165.2312,"EPHEMERIS_TYPE":0,"CLASSIFICATION_TYPE":"U","NORAD_CAT_ID":39197,"ELEMENT_SET_NO":999,"REV_AT_EPOCH":68953,"BSTAR":0.00025130835,"MEAN_MOTION_DOT":2.137e-5,"MEAN_MOTION_DDOT":0},{"OBJECT_NAME":"HISAKI (SPRINT-A)","OBJECT_ID":"2013-049A","EPOCH":"2026-04-05T01:39:34.049376","MEAN_MOTION":13.55534829,"ECCENTRICITY":0.01364168,"INCLINATION":29.7188,"RA_OF_ASC_NODE":231.7453,"ARG_OF_PERICENTER":144.0747,"MEAN_ANOMALY":216.9084,"EPHEMERIS_TYPE":0,"CLASSIFICATION_TYPE":"U","NORAD_CAT_ID":39253,"ELEMENT_SET_NO":999,"REV_AT_EPOCH":62149,"BSTAR":0.00013645285,"MEAN_MOTION_DOT":1.66e-6,"MEAN_MOTION_DDOT":0},{"OBJECT_NAME":"CASSIOPE","OBJECT_ID":"2013-055A","EPOCH":"2026-04-05T05:14:05.857440","MEAN_MOTION":15.2078898,"ECCENTRICITY":0.03067211,"INCLINATION":80.9163,"RA_OF_ASC_NODE":155.002,"ARG_OF_PERICENTER":307.4206,"MEAN_ANOMALY":49.9463,"EPHEMERIS_TYPE":0,"CLASSIFICATION_TYPE":"U","NORAD_CAT_ID":39265,"ELEMENT_SET_NO":999,"REV_AT_EPOCH":65656,"BSTAR":0.00040812363,"MEAN_MOTION_DOT":0.00034455,"MEAN_MOTION_DDOT":-3.09715e-7},{"OBJECT_NAME":"STSAT-3","OBJECT_ID":"2013-066G","EPOCH":"2026-04-05T06:09:47.393856","MEAN_MOTION":15.02343009,"ECCENTRICITY":0.00088234,"INCLINATION":97.6169,"RA_OF_ASC_NODE":66.3856,"ARG_OF_PERICENTER":279.3874,"MEAN_ANOMALY":80.6353,"EPHEMERIS_TYPE":0,"CLASSIFICATION_TYPE":"U","NORAD_CAT_ID":39422,"ELEMENT_SET_NO":999,"REV_AT_EPOCH":67325,"BSTAR":0.00063016695,"MEAN_MOTION_DOT":8.284e-5,"MEAN_MOTION_DDOT":0},{"OBJECT_NAME":"SWARM B","OBJECT_ID":"2013-067A","EPOCH":"2026-04-05T04:38:03.556608","MEAN_MOTION":15.28121515,"ECCENTRICITY":0.00028723,"INCLINATION":87.7501,"RA_OF_ASC_NODE":4.4662,"ARG_OF_PERICENTER":77.6128,"MEAN_ANOMALY":282.5443,"EPHEMERIS_TYPE":0,"CLASSIFICATION_TYPE":"U","NORAD_CAT_ID":39451,"ELEMENT_SET_NO":999,"REV_AT_EPOCH":67209,"BSTAR":0.00019782628,"MEAN_MOTION_DOT":5.454e-5,"MEAN_MOTION_DDOT":0},{"OBJECT_NAME":"SWARM A","OBJECT_ID":"2013-067B","EPOCH":"2026-04-05T05:01:02.200800","MEAN_MOTION":15.49439235,"ECCENTRICITY":0.00035346,"INCLINATION":87.3288,"RA_OF_ASC_NODE":83.3209,"ARG_OF_PERICENTER":95.7384,"MEAN_ANOMALY":264.4279,"EPHEMERIS_TYPE":0,"CLASSIFICATION_TYPE":"U","NORAD_CAT_ID":39452,"ELEMENT_SET_NO":999,"REV_AT_EPOCH":69494,"BSTAR":0.00026611334,"MEAN_MOTION_DOT":0.0001466,"MEAN_MOTION_DDOT":0},{"OBJECT_NAME":"SWARM C","OBJECT_ID":"2013-067C","EPOCH":"2026-04-05T05:00:56.166624","MEAN_MOTION":15.4943683,"ECCENTRICITY":0.00035353,"INCLINATION":87.3289,"RA_OF_ASC_NODE":81.902,"ARG_OF_PERICENTER":96.0155,"MEAN_ANOMALY":264.1508,"EPHEMERIS_TYPE":0,"CLASSIFICATION_TYPE":"U","NORAD_CAT_ID":39453,"ELEMENT_SET_NO":999,"REV_AT_EPOCH":69490,"BSTAR":0.00026701407,"MEAN_MOTION_DOT":0.00014709,"MEAN_MOTION_DDOT":0},{"OBJECT_NAME":"BRITE-CA1 (TORONTO)","OBJECT_ID":"2014-033L","EPOCH":"2026-04-05T03:08:16.426752","MEAN_MOTION":14.72554677,"ECCENTRICITY":0.00795687,"INCLINATION":97.9618,"RA_OF_ASC_NODE":225.4599,"ARG_OF_PERICENTER":150.0256,"MEAN_ANOMALY":210.5542,"EPHEMERIS_TYPE":0,"CLASSIFICATION_TYPE":"U","NORAD_CAT_ID":40020,"ELEMENT_SET_NO":999,"REV_AT_EPOCH":63146,"BSTAR":0.0003180207,"MEAN_MOTION_DOT":2.072e-5,"MEAN_MOTION_DDOT":0}]
